SEEDS II (CO-66)        
1 32791U 08021J   26074.94099819  .00017534  00000+0  61755-3 0  9997
2 32791  97.7513  68.6327 0000583 315.1203  44.9989 15.29374329973028
YUBILEINY (RS30)        
1 32953U 08025A   26075.30709154  .00000053  00000+0  30712-3 0  9999
2 32953  82.5006  53.2045 0019782 150.9572 209.2613 12.43176323808157
KKS-1 (KISEKI)          
1 33499U 09002H   26075.14528399  .00001675  00000+0  21364-3 0  9997
2 33499  98.1185 356.1387 0006723 225.4372 134.6293 14.82856186922402
SWISSCUBE               
1 35932U 09051B   26075.18338841  .00001241  00000+0  25568-3 0  9999
2 35932  98.4095 341.4414 0007505 133.9666 226.2155 14.62278521875563
BEESAT-1                
1 35933U 09051C   26074.80305299  .00000928  00000+0  19683-3 0  9991
2 35933  98.4025 340.8821 0005713 145.5133 214.6439 14.61547690875548
ITUPSAT1                
1 35935U 09051E   26075.19222403  .00000932  00000+0  20305-3 0  9999
2 35935  98.4111 340.5657 0007714 157.9119 202.2414 14.60282734875162
XIWANG-1 (HOPE-1)       
1 36122U 09072B   26075.22092552  .00000457  00000+0  13126-2 0  9999
2 36122 100.3919  30.5807 0008138  85.7675 274.4368 13.16438478780778
O/OREOS (USA 219)       
1 37224U 10062C   26075.02872170  .00002446  00000+0  23869-3 0  9990
2 37224  71.9702 291.2934 0016672 245.9620 113.9806 14.93315452102734
JUGNU                   
1 37839U 11058B   26074.93735353  .00000455  00000+0  98254-4 0  9997
2 37839  19.9595 154.9394 0018674 126.0702  29.7567 14.13743819745811
SRMSAT                  
1 37841U 11058D   26075.21068230  .00000448  00000+0  99048-4 0  9999
2 37841  19.9714 262.2357 0011711 261.1490 254.9459 14.11550397744668
STRAND-1                
1 39090U 13009E   26074.96986234  .00000332  00000+0  12599-3 0  9996
2 39090  98.3893 257.5055 0009353 144.0308 216.1510 14.37100505683674
ZACUBE-1 (TSHEPISOSAT)  
1 39417U 13066B   26075.13256441  .00003445  00000+0  27393-3 0  9998
2 39417  97.8156  36.9877 0043283 198.5806 161.3839 15.00390975666771
GOMX-1                  
1 39430U 13066Q   26075.29515970  .00001833  00000+0  28178-3 0  9996
2 39430  97.6568 281.5883 0129787  16.4137 344.1212 14.69125465656279
CUBEBUG-2 (LO-74)       
1 39440U 13066AA  26074.79647694  .00005468  00000+0  51439-3 0  9994
2 39440  97.8815  23.4787 0057848 338.8041  21.0781 14.93035357663059
FUNCUBE-1 (AO-73)       
1 39444U 13066AE  26074.87852186  .00007241  00000+0  46681-3 0  9995
2 39444  97.8184  44.5223 0037920 158.4050 201.8787 15.08026217665593
UWE-3                   
1 39446U 13066AG  26074.81547751  .00004944  00000+0  43342-3 0  9998
2 39446  97.8599  30.3705 0047780 271.0316  88.5430 14.96254353663611
UNISAT-6                
1 40012U 14033C   26074.92865447  .00002518  00000+0  27742-3 0  9992
2 40012  97.7731 229.3833 0045631  17.5226 342.7553 14.87684707632298
DUCHIFAT-1              
1 40021U 14033M   26075.09006416  .00058885  00000+0  10215-2 0  9998
2 40021  98.0625 122.2755 0005401  67.7538 292.4284 15.50664047641267
QB50P1                  
1 40025U 14033R   26075.24187994  .00008818  00000+0  45371-3 0  9993
2 40025  98.1001  79.9679 0009106 172.1539 187.9837 15.16666180638935
LILACSAT-2              
1 40908U 15049K   26075.23692385  .00017502  00000+0  33286-3 0  9997
2 40908  97.4799 108.6895 0006216 216.6623 143.4202 15.48289307581351
FOX-1A (AO-85)          
1 40967U 15058D   26074.76571733  .00003188  00000+0  29412-3 0  9993
2 40967  64.7754 209.1771 0128729  93.4814 268.1031 14.90408409 99644
CAS-2T & KS-1Q          
1 41847U 16066G   26075.21823130  .00001285  00000+0  18800-3 0  9998
2 41847  98.3874 151.9961 0343392  51.7502 311.4067 14.44490025491370
RADFXSAT (FOX-1B)       
1 43017U 17073E   26075.15142385  .00008983  00000+0  40764-3 0  9993
2 43017  97.4857 304.3123 0153612 289.7330  68.7387 15.11027162451334
DIWATA-2B               
1 43678U 18084H   26075.32640985  .00002062  00000+0  17085-3 0  9999
2 43678  98.1036 267.6358 0012461 106.6473 253.6119 14.99996831402298
ES'HAIL 2               
1 43700U 18090A   26075.21373480  .00000144  00000+0  00000+0 0  9997
2 43700   0.0152 117.4249 0001073 235.4623 283.6663  1.00272595 26742
FOX-1CLIFF (AO-95)      
1 43770U 18099N   26075.14126639  .00011251  00000+0  45860-3 0  9995
2 43770  97.4502 135.8279 0007754 322.2381  37.8311 15.24598328399033
ITASAT                  
1 43786U 18099AE  26075.10378769  .00007672  00000+0  38218-3 0  9992
2 43786  97.4158 128.5021 0011677 322.2585  37.7829 15.17789179398788
JY1SAT (JO-97)          
1 43803U 18099AX  26075.15925293  .00016980  00000+0  57634-3 0  9992
2 43803  97.4247 137.8364 0005085 228.8866 131.1936 15.30566368399382
UWE-4                   
1 43880U 18111E   26075.04190825  .00028213  00000+0  69674-3 0  9994
2 43880  97.5854 359.5617 0006444 312.5756  47.4946 15.40451333396412
TIANYAN 01              
1 44881U 19093C   26075.28306024  .00001096  00000+0  13017-3 0  9992
2 44881  97.7602 149.7644 0014449  37.6888 322.5338 14.86356230337619
RS-44 & BREEZE-KM R/B   
1 44909U 19096E   26075.20516295  .00000016  00000+0  22785-4 0  9995
2 44909  82.5215  41.4838 0217655   2.1052 358.0914 12.79747570290454
SALSAT                  
1 46495U 20068K   26075.22062059  .00008476  00000+0  30992-3 0  9990
2 46495  97.8855  72.7310 0008060 268.3906  91.6409 15.28323897301157
XW-3 (CAS-9)            
1 50466U 21131B   26075.30757222  .00000544  00000+0  18203-3 0  9996
2 50466  98.4954 168.2243 0004535  32.7906 327.3563 14.41259974221732
GREENCUBE (IO-117)      
1 53109U 22080E   26074.64681150 -.00000003  00000+0  00000+0 0  9992
2 53109  70.1596 330.7852 0008914 311.0797  48.9092  6.42583143 86053
UMKA 1 (RS40S)          
1 57172U 23091G   26075.28849281  .00006398  00000+0  30202-3 0  9994
2 57172  97.5172 134.3678 0014652  85.5158 274.7751 15.19703276149892
CUBESX-HSE 3 (RS42S)    
1 57178U 23091N   26075.30579506  .00013477  00000+0  48249-3 0  9999
2 57178  97.5200 139.8435 0012391  66.6143 293.6398 15.28820109150224
MONITOR-3 (RS58S)       
1 57180U 23091Q   26075.33627955  .00010521  00000+0  41188-3 0  9999
2 57180  97.5194 138.1885 0013412  71.1071 289.1620 15.25915550150125
MONITOR-4 (RS57S)       
1 57182U 23091S   26075.32102972  .00011885  00000+0  46359-3 0  9996
2 57182  97.5189 138.1384 0013391  71.6489 288.6204 15.26003855150128
MONITOR-2 (RS39S)       
1 57184U 23091U   26075.26514530  .00005238  00000+0  26046-3 0  9994
2 57184  97.5193 134.1586 0012927  78.6800 281.5886 15.17999916149851
SVYATOBOR 1 (RS60S)     
1 57187U 23091X   26075.26217813  .00009693  00000+0  39105-3 0  9990
2 57187  97.5201 138.6332 0010874  65.0391 295.1975 15.24963240150149
VIZARD-METEO (RS38S)    
1 57189U 23091Z   26075.29111449  .00016127  00000+0  50718-3 0  9996
2 57189  97.5190 143.0886 0008362  52.1128 308.0869 15.33015377150444
NANOZOND 1 (RS49S)      
1 57190U 23091AA  26074.26912972  .00233163  00000+0  13847-2 0  9996
2 57190  97.5058 154.9745 0002282 289.4604  70.6415 15.77351754151151
POLYTECH-UNIVERSE 3 (R*)
1 57191U 23091AB  26075.30435300  .00006102  00000+0  30067-3 0  9993
2 57191  97.5168 133.7039 0017398  93.2408 267.0817 15.18187735149855
UTMN 2 (RS27S)          
1 57203U 23091AP  26075.31027964  .00012875  00000+0  44936-3 0  9995
2 57203  97.5192 141.3675 0009327  56.5417 303.6714 15.29696961150338
KUZGTU 1 (RS47S)        
1 57217U 23091AV  26075.28653443  .00011987  00000+0  44476-3 0  9995
2 57217  97.5175 138.9280 0012647  69.3556 290.9038 15.27671851150182
SONATE-2                
1 59112U 24043Q   26075.17293469  .00037481  00000+0  62414-3 0  9994
2 59112  97.5396 220.4170 0007976 180.7600 179.3641 15.51899519113432
MESAT1                  
1 60209U 24125G   26075.13980036  .00044477  00000+0  67882-3 0  9990
2 60209  97.2450 291.0564 0011697 196.0177 164.0709 15.54242237 95071
OOV-CUBE (TUBSAT-30)    
1 60240U 24128F   26075.01939765  .00002697  00000+0  21282-3 0  9990
2 60240  61.9955 190.3307 0053961 113.6112 247.0658 15.02302188 92116
COLIBRI-S (RS67S)       
1 61746U 24199M   26075.29672111  .00021916  00000+0  48508-3 0  9994
2 61746  97.3154 308.4927 0007468 255.2189 104.8232 15.43786449123068
HORS 3 (RS81S)          
1 61753U 24199U   26075.23724940  .00030517  00000+0  56693-3 0  9995
2 61753  97.3122 309.5860 0005274 257.4691 102.5970 15.48853926123147
HORS 4 (RS82S)          
1 61754U 24199V   26075.29298335  .00037077  00000+0  62067-3 0  9996
2 61754  97.3093 310.3657 0004947 252.4627 107.6086 15.51774548123206
HORIZON (RS59S)         
1 61757U 24199Y   26075.24251471  .00146884  00000+0  10984-2 0  9991
2 61757  97.3054 314.3482 0003740 207.8787 152.2277 15.72237842123456
ARCTICSAT 1 (RS74S)     
1 61762U 24199AD  26075.27526140  .00104709  00000+0  96766-3 0  9991
2 61762  97.3080 313.8577 0004069 211.5321 148.5697 15.67220361123424
SIT-2086                
1 61764U 24199AF  26075.25152381  .00024457  00000+0  46853-3 0  9996
2 61764  97.3116 310.3228 0006031 243.7467 116.3164 15.48007097120034
HYPERVIEW 1G (RS66S)    
1 61772U 24199AP  26075.24162358  .00069555  00000+0  89033-3 0  9994
2 61772  97.3077 311.4887 0006306 251.8155 108.2415 15.58955831120129
ALTAIR (RS65S)          
1 61779U 24199AW  26075.28540681  .00010324  00000+0  30441-3 0  9993
2 61779  97.3178 305.2952 0011704 281.6035  78.3894 15.35132783122856
ASRTU-1 (AO-123)        
1 61781U 24199AY  26075.26901426  .00009114  00000+0  27698-3 0  9997
2 61781  97.3151 304.7944 0012444 283.8376  76.1483 15.34205411119673
TUSUR GO (RS78S)        
1 61782U 24199AZ  26075.25247492  .00166777  00000+0  12004-2 0  9996
2 61782  97.3008 313.3715 0003918 227.8545 132.2387 15.73084243120253
SAMSAT-IONOSPHERE (RS7*)
1 61784U 24199BB  26075.25635042  .00038391  00000+0  68081-3 0  9997
2 61784  97.3114 309.4089 0008385 263.4840  96.5457 15.50112457123134
